{"type": "FeatureCollection", "features": [ {"type": "Feature", "properties": {"norad_id": 67051, "name": "STARLINK-35706", "group": "last-30-days", "lat": 24.58051399313606, "lon": -85.50201721018949, "alt_km": 317.54844282003796, "timestamp": "2025-12-22T05:49:02.189073+00:00", "meta": {"OBJECT_NAME": "STARLINK-35706", "OBJECT_ID": "2025-294X", "EPOCH": "2025-12-21T20:00:01.999008", "MEAN_MOTION": 15.85200652, "ECCENTRICITY": 0.000177, "INCLINATION": 43.0005, "RA_OF_ASC_NODE": 126.413, "ARG_OF_PERICENTER": 280.1586, "MEAN_ANOMALY": 46.2894, "EPHEMERIS_TYPE": 0, "CLASSIFICATION_TYPE": "U", "NORAD_CAT_ID": 67051, "ELEMENT_SET_NO": 999, "REV_AT_EPOCH": 177, "BSTAR": -0.0083645, "MEAN_MOTION_DOT": -0.01768052, "MEAN_MOTION_DDOT": 0}, "tle": {"line1": "1 67051U 25294X   25355.83335647 -.01768052  00000+0 -83645-2 0  9998", "line2": "2 67051  43.0005 126.4130 0001770 280.1586  46.2894 15.85200652  1777"}}, "geometry": {"type": "Point", "coordinates": [-85.50201721018949, 24.58051399313606]}}, {"type": "Feature", "properties": {"norad_id": 67052, "name": "STARLINK-35720", "group": "last-30-days", "lat": 23.374320686696397, "lon": -83.74230688523417, "alt_km": 317.6414635254778, "timestamp": "2025-12-22T05:49:02.189084+00:00", "meta": {"OBJECT_NAME": "STARLINK-35720", "OBJECT_ID": "2025-294Y", "EPOCH": "2025-12-21T20:00:01.999008", "MEAN_MOTION": 15.8520132, "ECCENTRICITY": 0.0001499, "INCLINATION": 43.0004, "RA_OF_ASC_NODE": 126.4081, "ARG_OF_PERICENTER": 282.6333, "MEAN_ANOMALY": 45.8314, "EPHEMERIS_TYPE": 0, "CLASSIFICATION_TYPE": "U", "NORAD_CAT_ID": 67052, "ELEMENT_SET_NO": 999, "REV_AT_EPOCH": 176, "BSTAR": -0.0084246, "MEAN_MOTION_DOT": -0.01778663, "MEAN_MOTION_DDOT": 0}, "tle": {"line1": "1 67052U 25294Y   25355.83335647 -.01778663  00000+0 -84246-2 0  9996", "line2": "2 67052  43.0004 126.4081 0001499 282.6333  45.8314 15.85201320  1761"}}, "geometry": {"type": "Point", "coordinates": [-83.74230688523417, 23.374320686696397]}}, {"type": "Feature", "properties": {"norad_id": 67053, "name": "STARLINK-35739", "group": "last-30-days", "lat": 21.994547864365718, "lon": -81.80161136968962, "alt_km": 317.93119937065603, "timestamp": "2025-12-22T05:49:02.189094+00:00", "meta": {"OBJECT_NAME": "STARLINK-35739", "OBJECT_ID": "2025-294Z", "EPOCH": "2025-12-21T20:00:01.999008", "MEAN_MOTION": 15.85198869, "ECCENTRICITY": 0.0001575, "INCLINATION": 43.0006, "RA_OF_ASC_NODE": 126.402, "ARG_OF_PERICENTER": 283.8076, "MEAN_ANOMALY": 46.9328, "EPHEMERIS_TYPE": 0, "CLASSIFICATION_TYPE": "U", "NORAD_CAT_ID": 67053, "ELEMENT_SET_NO": 999, "REV_AT_EPOCH": 141, "BSTAR": -0.008485, "MEAN_MOTION_DOT": -0.01789435, "MEAN_MOTION_DDOT": 0}, "tle": {"line1": "1 67053U 25294Z   25355.83335647 -.01789435  00000+0 -84850-2 0  9997", "line2": "2 67053  43.0006 126.4020 0001575 283.8076  46.9328 15.85198869  1411"}}, "geometry": {"type": "Point", "coordinates": [-81.80161136968962, 21.994547864365718]}}, {"type": "Feature", "properties": {"norad_id": 67054, "name": "STARLINK-35754", "group": "last-30-days", "lat": 20.460839149050248, "lon": -79.72350168560266, "alt_km": 318.228731367557, "timestamp": "2025-12-22T05:49:02.189104+00:00", "meta": {"OBJECT_NAME": "STARLINK-35754", "OBJECT_ID": "2025-294AA", "EPOCH": "2025-12-21T20:00:01.999008", "MEAN_MOTION": 15.85180794, "ECCENTRICITY": 0.0001752, "INCLINATION": 43.0004, "RA_OF_ASC_NODE": 126.3959, "ARG_OF_PERICENTER": 281.8515, "MEAN_ANOMALY": 51.3876, "EPHEMERIS_TYPE": 0, "CLASSIFICATION_TYPE": "U", "NORAD_CAT_ID": 67054, "ELEMENT_SET_NO": 999, "REV_AT_EPOCH": 157, "BSTAR": -0.0084642, "MEAN_MOTION_DOT": -0.01784533, "MEAN_MOTION_DDOT": 0}, "tle": {"line1": "1 67054U 25294AA  25355.83335647 -.01784533  00000+0 -84642-2 0  9991", "line2": "2 67054  43.0004 126.3959 0001752 281.8515  51.3876 15.85180794  1576"}}, "geometry": {"type": "Point", "coordinates": [-79.72350168560266, 20.460839149050248]}}, {"type": "Feature", "properties": {"norad_id": 67055, "name": "STARLINK-35790", "group": "last-30-days", "lat": 18.962140352328703, "lon": -77.76402810926783, "alt_km": 318.4748076395499, "timestamp": "2025-12-22T05:49:02.189114+00:00", "meta": {"OBJECT_NAME": "STARLINK-35790", "OBJECT_ID": "2025-294AB", "EPOCH": "2025-12-21T20:00:01.999008", "MEAN_MOTION": 15.85147657, "ECCENTRICITY": 0.0001903, "INCLINATION": 43.0002, "RA_OF_ASC_NODE": 126.3892, "ARG_OF_PERICENTER": 278.7171, "MEAN_ANOMALY": 56.9422, "EPHEMERIS_TYPE": 0, "CLASSIFICATION_TYPE": "U", "NORAD_CAT_ID": 67055, "ELEMENT_SET_NO": 999, "REV_AT_EPOCH": 177, "BSTAR": -0.0083954, "MEAN_MOTION_DOT": -0.0176984, "MEAN_MOTION_DDOT": 0}, "tle": {"line1": "1 67055U 25294AB  25355.83335647 -.01769840  00000+0 -83954-2 0  9991", "line2": "2 67055  43.0002 126.3892 0001903 278.7171  56.9422 15.85147657  1773"}}, "geometry": {"type": "Point", "coordinates": [-77.76402810926783, 18.962140352328703]}}, {"type": "Feature", "properties": {"norad_id": 67056, "name": "STARLINK-36143", "group": "last-30-days", "lat": 14.9479330598197, "lon": -72.79180615518463, "alt_km": 318.9594276659591, "timestamp": "2025-12-22T05:49:02.189126+00:00", "meta": {"OBJECT_NAME": "STARLINK-36143", "OBJECT_ID": "2025-294AC", "EPOCH": "2025-12-21T20:00:01.999008", "MEAN_MOTION": 15.85145232, "ECCENTRICITY": 0.0001411, "INCLINATION": 43.0003, "RA_OF_ASC_NODE": 126.3733, "ARG_OF_PERICENTER": 285.637, "MEAN_ANOMALY": 56.2608, "EPHEMERIS_TYPE": 0, "CLASSIFICATION_TYPE": "U", "NORAD_CAT_ID": 67056, "ELEMENT_SET_NO": 999, "REV_AT_EPOCH": 177, "BSTAR": -0.0084695, "MEAN_MOTION_DOT": -0.01782464, "MEAN_MOTION_DDOT": 0}, "tle": {"line1": "1 67056U 25294AC  25355.83335647 -.01782464  00000+0 -84695-2 0  9992", "line2": "2 67056  43.0003 126.3733 0001411 285.6370  56.2608 15.85145232  1777"}}, "geometry": {"type": "Point", "coordinates": [-72.79180615518463, 14.9479330598197]}}, {"type": "Feature", "properties": {"norad_id": 67057, "name": "STARLINK-36141", "group": "last-30-days", "lat": 16.35261839959952, "lon": -74.49096453565308, "alt_km": 318.7654611073349, "timestamp": "2025-12-22T05:49:02.189136+00:00", "meta": {"OBJECT_NAME": "STARLINK-36141", "OBJECT_ID": "2025-294AD", "EPOCH": "2025-12-21T20:00:01.999008", "MEAN_MOTION": 15.85156704, "ECCENTRICITY": 0.0001549, "INCLINATION": 43, "RA_OF_ASC_NODE": 126.3792, "ARG_OF_PERICENTER": 282.3097, "MEAN_ANOMALY": 57.4194, "EPHEMERIS_TYPE": 0, "CLASSIFICATION_TYPE": "U", "NORAD_CAT_ID": 67057, "ELEMENT_SET_NO": 999, "REV_AT_EPOCH": 169, "BSTAR": -0.0085059, "MEAN_MOTION_DOT": -0.01829422, "MEAN_MOTION_DDOT": 0}, "tle": {"line1": "1 67057U 25294AD  25355.83335647 -.01829422  00000+0 -85059-2 0  9994", "line2": "2 67057  43.0000 126.3792 0001549 282.3097  57.4194 15.85156704  1692"}}, "geometry": {"type": "Point", "coordinates": [-74.49096453565308, 16.35261839959952]}}, {"type": "Feature", "properties": {"norad_id": 67058, "name": "STARLINK-35767", "group": "last-30-days", "lat": 17.63342502630486, "lon": -76.07707260100291, "alt_km": 318.67807436945077, "timestamp": "2025-12-22T05:49:02.189149+00:00", "meta": {"OBJECT_NAME": "STARLINK-35767", "OBJECT_ID": "2025-294AE", "EPOCH": "2025-12-21T20:00:01.999008", "MEAN_MOTION": 15.85148972, "ECCENTRICITY": 0.0001692, "INCLINATION": 43.0003, "RA_OF_ASC_NODE": 126.3839, "ARG_OF_PERICENTER": 284.0615, "MEAN_ANOMALY": 53.681, "EPHEMERIS_TYPE": 0, "CLASSIFICATION_TYPE": "U", "NORAD_CAT_ID": 67058, "ELEMENT_SET_NO": 999, "REV_AT_EPOCH": 157, "BSTAR": -0.0084306, "MEAN_MOTION_DOT": -0.01776037, "MEAN_MOTION_DDOT": 0}, "tle": {"line1": "1 67058U 25294AE  25355.83335647 -.01776037  00000+0 -84306-2 0  9992", "line2": "2 67058  43.0003 126.3839 0001692 284.0615  53.6810 15.85148972  1570"}}, "geometry": {"type": "Point", "coordinates": [-76.07707260100291, 17.63342502630486]}}, {"type": "Feature", "properties": {"norad_id": 67059, "name": "HULIANWANG DIGUI-119", "group": "last-30-days", "lat": 14.339322878133615, "lon": -15.463705217403726, "alt_km": 809.8373109710501, "timestamp": "2025-12-22T05:49:02.189159+00:00", "meta": {"OBJECT_NAME": "HULIANWANG DIGUI-119", "OBJECT_ID": "2025-295A", "EPOCH": "2025-12-21T14:34:38.561664", "MEAN_MOTION": 14.24613512, "ECCENTRICITY": 0.0013987, "INCLINATION": 50.0068, "RA_OF_ASC_NODE": 334.8225, "ARG_OF_PERICENTER": 277.7639, "MEAN_ANOMALY": 82.1686, "EPHEMERIS_TYPE": 0, "CLASSIFICATION_TYPE": "U", "NORAD_CAT_ID": 67059, "ELEMENT_SET_NO": 999, "REV_AT_EPOCH": 138, "BSTAR": -1.843e-05, "MEAN_MOTION_DOT": -2.03e-06, "MEAN_MOTION_DDOT": 0}, "tle": {"line1": "1 67059U 25295A   25355.60739076 -.00000203  00000+0 -18430-4 0  9994", "line2": "2 67059  50.0068 334.8225 0013987 277.7639  82.1686 14.24613512  1386"}}, "geometry": {"type": "Point", "coordinates": [-15.463705217403726, 14.339322878133615]}}, {"type": "Feature", "properties": {"norad_id": 67060, "name": "HULIANWANG DIGUI-120", "group": "last-30-days", "lat": 26.030355944852886, "lon": -3.6802549941979272, "alt_km": 806.6208837328995, "timestamp": "2025-12-22T05:49:02.189171+00:00", "meta": {"OBJECT_NAME": "HULIANWANG DIGUI-120", "OBJECT_ID": "2025-295B", "EPOCH": "2025-12-21T12:49:54.103872", "MEAN_MOTION": 14.25709935, "ECCENTRICITY": 0.0013174, "INCLINATION": 50.0059, "RA_OF_ASC_NODE": 335.1053, "ARG_OF_PERICENTER": 278.4539, "MEAN_ANOMALY": 81.4881, "EPHEMERIS_TYPE": 0, "CLASSIFICATION_TYPE": "U", "NORAD_CAT_ID": 67060, "ELEMENT_SET_NO": 999, "REV_AT_EPOCH": 137, "BSTAR": -1.4927e-05, "MEAN_MOTION_DOT": -1.96e-06, "MEAN_MOTION_DDOT": 0}, "tle": {"line1": "1 67060U 25295B   25355.53465398 -.00000196  00000+0 -14927-4 0  9999", "line2": "2 67060  50.0059 335.1053 0013174 278.4539  81.4881 14.25709935  1370"}}, "geometry": {"type": "Point", "coordinates": [-3.6802549941979272, 26.030355944852886]}}]}